start=new Date('2022-02-20T00:00:00.000Z').valueOf();
sats=[{"PERIAPSIS":"546.097","INCLINATION":"53.0550","BSTAR":"0.00008426200000","TLE_LINE1":"1 45234U 20012BJ  22050.78630599  .00000974  00000-0  84262-4 0  9995","MEAN_MOTION":"15.06405258","OBJECT_NAME":"STARLINK-1243","OBJECT_ID":"2020-012BJ","MEAN_ANOMALY":"281.6101","RA_OF_ASC_NODE":"205.6610","COUNTRY_CODE":"US","EPHEMERIS_TYPE":"0","TIME_SYSTEM":"UTC","LAUNCH_DATE":"2020-02-17","ELEMENT_SET_NO":"999","ARG_OF_PERICENTER":"78.5066","MEAN_MOTION_DOT":"0.00000974","EPOCH":"2022-02-19T18:52:16.837536","APOAPSIS":"548.298","CENTER_NAME":"EARTH","REF_FRAME":"TEME","CLASSIFICATION_TYPE":"U","SITE":"AFETR","OBJECT_TYPE":"PAYLOAD","MEAN_MOTION_DDOT":"0.0000000000000","ECCENTRICITY":"0.00015890","DECAY_DATE":null,"SEMIMAJOR_AXIS":"6925.332","REV_AT_EPOCH":"11190","NORAD_CAT_ID":"45234","MEAN_ELEMENT_THEORY":"SGP4","PERIOD":"95.592","GP_ID":"196425315","RCS_SIZE":"LARGE","FILE":"3308986","TLE_LINE2":"2 45234  53.0550 205.6610 0001589  78.5066 281.6101 15.06405258111900"},{"ELEMENT_SET_NO":"999","ARG_OF_PERICENTER":"57.7010","EPOCH":"2022-02-19T16:55:29.842464","MEAN_MOTION_DOT":"0.00001470","CENTER_NAME":"EARTH","APOAPSIS":"548.352","MEAN_MOTION":"15.06397896","TLE_LINE1":"1 45235U 20012BK  22050.70520651  .00001470  00000-0  11755-3 0  9993","BSTAR":"0.00011755000000","INCLINATION":"53.0525","PERIAPSIS":"546.088","MEAN_ANOMALY":"302.4137","OBJECT_ID":"2020-012BK","OBJECT_NAME":"STARLINK-1246","COUNTRY_CODE":"US","RA_OF_ASC_NODE":"206.0458","TIME_SYSTEM":"UTC","LAUNCH_DATE":"2020-02-17","EPHEMERIS_TYPE":"0","NORAD_CAT_ID":"45235","MEAN_ELEMENT_THEORY":"SGP4","GP_ID":"196426563","PERIOD":"95.592","FILE":"3308986","RCS_SIZE":"LARGE","TLE_LINE2":"2 45235  53.0525 206.0458 0001635  57.7010 302.4137 15.06397896111941","SITE":"AFETR","REF_FRAME":"TEME","CLASSIFICATION_TYPE":"U","MEAN_MOTION_DDOT":"0.0000000000000","OBJECT_TYPE":"PAYLOAD","DECAY_DATE":null,"ECCENTRICITY":"0.00016350","REV_AT_EPOCH":"11194","SEMIMAJOR_AXIS":"6925.355"},{"ARG_OF_PERICENTER":"54.5624","ELEMENT_SET_NO":"999","EPOCH":"2022-02-19T18:04:31.186272","MEAN_MOTION_DOT":"-0.00000204","APOAPSIS":"548.408","CENTER_NAME":"EARTH","BSTAR":"0.00000521700000","INCLINATION":"53.0537","PERIAPSIS":"546.041","TLE_LINE1":"1 45236U 20012BL  22050.75313873 -.00000204  00000-0  52170-5 0  9998","MEAN_MOTION":"15.06396432","OBJECT_ID":"2020-012BL","MEAN_ANOMALY":"305.5525","OBJECT_NAME":"STARLINK-1247","COUNTRY_CODE":"US","RA_OF_ASC_NODE":"165.8166","EPHEMERIS_TYPE":"0","LAUNCH_DATE":"2020-02-17","TIME_SYSTEM":"UTC","MEAN_ELEMENT_THEORY":"SGP4","NORAD_CAT_ID":"45236","PERIOD":"95.592","GP_ID":"196426817","RCS_SIZE":"LARGE","FILE":"3308986","TLE_LINE2":"2 45236  53.0537 165.8166 0001709  54.5624 305.5525 15.06396432112481","REF_FRAME":"TEME","CLASSIFICATION_TYPE":"U","SITE":"AFETR","OBJECT_TYPE":"PAYLOAD","MEAN_MOTION_DDOT":"0.0000000000000","DECAY_DATE":null,"ECCENTRICITY":"0.00017090","SEMIMAJOR_AXIS":"6925.359","REV_AT_EPOCH":"11248"},{"REV_AT_EPOCH":"11247","SEMIMAJOR_AXIS":"6925.356","DECAY_DATE":null,"ECCENTRICITY":"0.00014650","MEAN_MOTION_DDOT":"0.0000000000000","OBJECT_TYPE":"PAYLOAD","SITE":"AFETR","CLASSIFICATION_TYPE":"U","REF_FRAME":"TEME","TLE_LINE2":"2 45237  53.0548 166.3336 0001465  60.5644 299.5491 15.06397569112472","FILE":"3308986","RCS_SIZE":"LARGE","GP_ID":"196425568","PERIOD":"95.592","MEAN_ELEMENT_THEORY":"SGP4","NORAD_CAT_ID":"45237","TIME_SYSTEM":"UTC","LAUNCH_DATE":"2020-02-17","EPHEMERIS_TYPE":"0","COUNTRY_CODE":"US","RA_OF_ASC_NODE":"166.3336","MEAN_ANOMALY":"299.5491","OBJECT_ID":"2020-012BM","OBJECT_NAME":"STARLINK-1270","TLE_LINE1":"1 45237U 20012BM  22050.64255837 -.00000295  00000-0 -90408-6 0  9990","MEAN_MOTION":"15.06397569","INCLINATION":"53.0548","BSTAR":"-0.00000090408000","PERIAPSIS":"546.206","CENTER_NAME":"EARTH","APOAPSIS":"548.236","EPOCH":"2022-02-19T15:25:17.043168","MEAN_MOTION_DOT":"-0.00000295","ARG_OF_PERICENTER":"60.5644","ELEMENT_SET_NO":"999"},{"EPHEMERIS_TYPE":"0","LAUNCH_DATE":"2020-03-18","TIME_SYSTEM":"UTC","COUNTRY_CODE":"US","RA_OF_ASC_NODE":"295.0172","OBJECT_ID":"2020-019A","MEAN_ANOMALY":"293.5266","OBJECT_NAME":"STARLINK-1279","BSTAR":"0.00017985000000","INCLINATION":"53.0534","PERIAPSIS":"546.051","MEAN_MOTION":"15.06406439","TLE_LINE1":"1 45360U 20019A   22050.93282627  .00002399  00000-0  17985-3 0  9994","APOAPSIS":"548.337","CENTER_NAME":"EARTH","EPOCH":"2022-02-19T22:23:16.189728","MEAN_MOTION_DOT":"0.00002399","ARG_OF_PERICENTER":"66.5897","ELEMENT_SET_NO":"999","SEMIMAJOR_AXIS":"6925.329","REV_AT_EPOCH":"10725","DECAY_DATE":null,"ECCENTRICITY":"0.00016500","OBJECT_TYPE":"PAYLOAD","MEAN_MOTION_DDOT":"0.0000000000000","REF_FRAME":"TEME","CLASSIFICATION_TYPE":"U","SITE":"AFETR","TLE_LINE2":"2 45360  53.0534 295.0172 0001650  66.5897 293.5266 15.06406439107255","RCS_SIZE":"LARGE","FILE":"3308986","PERIOD":"95.592","GP_ID":"196426330","NORAD_CAT_ID":"45360","MEAN_ELEMENT_THEORY":"SGP4"},{"COUNTRY_CODE":"US","RA_OF_ASC_NODE":"305.0710","EPHEMERIS_TYPE":"0","LAUNCH_DATE":"2020-03-18","TIME_SYSTEM":"UTC","BSTAR":"-0.00012320000000","INCLINATION":"53.0551","PERIAPSIS":"546.252","MEAN_MOTION":"15.06392553","TLE_LINE1":"1 45361U 20019B   22050.92085077 -.00002116  00000-0 -12320-3 0  9991","MEAN_ANOMALY":"291.0528","OBJECT_ID":"2020-019B","OBJECT_NAME":"STARLINK-1301","APOAPSIS":"548.221","CENTER_NAME":"EARTH","ELEMENT_SET_NO":"999","ARG_OF_PERICENTER":"69.0613","EPOCH":"2022-02-19T22:06:01.506528","MEAN_MOTION_DOT":"-0.00002116","DECAY_DATE":null,"ECCENTRICITY":"0.00014220","SEMIMAJOR_AXIS":"6925.371","REV_AT_EPOCH":"10712","CLASSIFICATION_TYPE":"U","REF_FRAME":"TEME","SITE":"AFETR","OBJECT_TYPE":"PAYLOAD","MEAN_MOTION_DDOT":"0.0000000000000","RCS_SIZE":"LARGE","FILE":"3308986","TLE_LINE2":"2 45361  53.0551 305.0710 0001422  69.0613 291.0528 15.06392553107127","NORAD_CAT_ID":"45361","MEAN_ELEMENT_THEORY":"SGP4","PERIOD":"95.593","GP_ID":"196425081"},{"GP_ID":"196425329","PERIOD":"95.592","NORAD_CAT_ID":"45362","MEAN_ELEMENT_THEORY":"SGP4","TLE_LINE2":"2 45362  53.0549 325.1604 0001691  63.2756 296.8406 15.06401215106833","FILE":"3308986","RCS_SIZE":"LARGE","MEAN_MOTION_DDOT":"0.0000000000000","OBJECT_TYPE":"PAYLOAD","SITE":"AFETR","REF_FRAME":"TEME","CLASSIFICATION_TYPE":"U","REV_AT_EPOCH":"10683","SEMIMAJOR_AXIS":"6925.345","DECAY_DATE":null,"ECCENTRICITY":"0.00016910","EPOCH":"2022-02-19T21:36:48.978432","MEAN_MOTION_DOT":"-0.00000911","ELEMENT_SET_NO":"999","ARG_OF_PERICENTER":"63.2756","CENTER_NAME":"EARTH","APOAPSIS":"548.381","MEAN_ANOMALY":"296.8406","OBJECT_ID":"2020-019C","OBJECT_NAME":"STARLINK-1306","MEAN_MOTION":"15.06401215","TLE_LINE1":"1 45362U 20019C   22050.90056688 -.00000911  00000-0 -42253-4 0  9996","BSTAR":"-0.00004225300000","INCLINATION":"53.0549","PERIAPSIS":"546.039","TIME_SYSTEM":"UTC","LAUNCH_DATE":"2020-03-18","EPHEMERIS_TYPE":"0","COUNTRY_CODE":"US","RA_OF_ASC_NODE":"325.1604"},{"RCS_SIZE":"LARGE","FILE":"3308986","TLE_LINE2":"2 45364  53.0541 295.0384 0001721  67.4464 292.6707 15.06394542107252","NORAD_CAT_ID":"45364","MEAN_ELEMENT_THEORY":"SGP4","PERIOD":"95.592","GP_ID":"196426577","DECAY_DATE":null,"ECCENTRICITY":"0.00017210","SEMIMAJOR_AXIS":"6925.365","REV_AT_EPOCH":"10725","REF_FRAME":"TEME","CLASSIFICATION_TYPE":"U","SITE":"AFETR","OBJECT_TYPE":"PAYLOAD","MEAN_MOTION_DDOT":"0.0000000000000","APOAPSIS":"548.422","CENTER_NAME":"EARTH","ELEMENT_SET_NO":"999","ARG_OF_PERICENTER":"67.4464","EPOCH":"2022-02-19T22:17:57.432480","MEAN_MOTION_DOT":"-0.00002399","COUNTRY_CODE":"US","RA_OF_ASC_NODE":"295.0384","EPHEMERIS_TYPE":"0","LAUNCH_DATE":"2020-03-18","TIME_SYSTEM":"UTC","BSTAR":"-0.00014221000000","INCLINATION":"53.0541","PERIAPSIS":"546.038","MEAN_MOTION":"15.06394542","TLE_LINE1":"1 45364U 20019E   22050.92913695 -.00002399  00000-0 -14221-3 0  9995","MEAN_ANOMALY":"292.6707","OBJECT_ID":"2020-019E","OBJECT_NAME":"STARLINK-1313"},{"EPOCH":"2022-02-19T20:57:38.586528","MEAN_MOTION_DOT":"-0.00001131","ELEMENT_SET_NO":"999","ARG_OF_PERICENTER":"72.2008","CENTER_NAME":"EARTH","APOAPSIS":"550.826","OBJECT_ID":"2020-019F","MEAN_ANOMALY":"287.9154","OBJECT_NAME":"STARLINK-1317","TLE_LINE1":"1 45365U 20019F   22050.87336327 -.00001131  00000-0 -58449-4 0  9995","MEAN_MOTION":"15.05581883","INCLINATION":"52.9994","BSTAR":"-0.00005844900000","PERIAPSIS":"548.618","LAUNCH_DATE":"2020-03-18","TIME_SYSTEM":"UTC","EPHEMERIS_TYPE":"0","COUNTRY_CODE":"US","RA_OF_ASC_NODE":"305.2995","GP_ID":"196426831","PERIOD":"95.644","NORAD_CAT_ID":"45365","MEAN_ELEMENT_THEORY":"SGP4","TLE_LINE2":"2 45365  52.9994 305.2995 0001594  72.2008 287.9154 15.05581883107079","FILE":"3308986","RCS_SIZE":"LARGE","MEAN_MOTION_DDOT":"0.0000000000000","OBJECT_TYPE":"PAYLOAD","SITE":"AFETR","CLASSIFICATION_TYPE":"U","REF_FRAME":"TEME","REV_AT_EPOCH":"10707","SEMIMAJOR_AXIS":"6927.857","DECAY_DATE":null,"ECCENTRICITY":"0.00015940"},{"TIME_SYSTEM":"UTC","LAUNCH_DATE":"2020-03-18","EPHEMERIS_TYPE":"0","COUNTRY_CODE":"US","RA_OF_ASC_NODE":"325.5180","MEAN_ANOMALY":"292.3868","OBJECT_ID":"2020-019G","OBJECT_NAME":"STARLINK-1262","MEAN_MOTION":"15.06404659","TLE_LINE1":"1 45366U 20019G   22050.81947532  .00001542  00000-0  12239-3 0  9996","INCLINATION":"53.0550","BSTAR":"0.00012239000000","PERIAPSIS":"545.960","CENTER_NAME":"EARTH","APOAPSIS":"548.439","EPOCH":"2022-02-19T19:40:02.667648","MEAN_MOTION_DOT":"0.00001542","ELEMENT_SET_NO":"999","ARG_OF_PERICENTER":"67.7310","REV_AT_EPOCH":"10683","SEMIMAJOR_AXIS":"6925.334","DECAY_DATE":null,"ECCENTRICITY":"0.00017900","MEAN_MOTION_DDOT":"0.0000000000000","OBJECT_TYPE":"PAYLOAD","SITE":"AFETR","CLASSIFICATION_TYPE":"U","REF_FRAME":"TEME","TLE_LINE2":"2 45366  53.0550 325.5180 0001790  67.7310 292.3868 15.06404659106835","FILE":"3308986","RCS_SIZE":"LARGE","GP_ID":"196425582","PERIOD":"95.592","MEAN_ELEMENT_THEORY":"SGP4","NORAD_CAT_ID":"45366"}];
